GLOBALSTAR M094         
1 39074U 13005C   24152.58903596 -.00000093  00000+0  57993-4 0  9990
2 39074  51.9963 263.9711 0000861 134.7097 225.3840 12.62266428524186
GLOBALSTAR M096         
1 39075U 13005D   24152.76053605 -.00000082  00000+0  12055-3 0  9995
2 39075  52.0086 311.6652 0001146 115.8940 244.2045 12.62266209523121
GLOBALSTAR M078         
1 39076U 13005E   24153.05125128 -.00000081  00000+0  12454-3 0  9991
2 39076  51.9895  35.8107 0001682  63.7839 296.3200 12.62276735521990
GLOBALSTAR M095         
1 39077U 13005F   24152.83942338 -.00000096  00000+0  44049-4 0  9999
2 39077  51.9823  33.8367 0001403  83.9521 276.1505 12.62263302521610
GLOBALSTAR M087         
1 52888U 22064A   24152.66978494 -.00000092  00000+0  69011-4 0  9994
2 52888  51.9762 265.9770 0008837 324.7359  35.2956 13.37575409 95310
